{
    "links": {
        "self": "http://www.neowsapp.com/rest/v1/neo/3605763?api_key=iIulBulltgU6a56xZRHN4H3l9WmuAYTsLGpBGhQ2"
    },
    "id": "3605763",
    "neo_reference_id": "3605763",
    "name": "(2012 LJ11)",
    "designation": "2012 LJ11",
    "nasa_jpl_url": "http://ssd.jpl.nasa.gov/sbdb.cgi?sstr=3605763",
    "absolute_magnitude_h": 22.7,
    "estimated_diameter": {
        "kilometers": {
            "estimated_diameter_min": 0.0766575574,
            "estimated_diameter_max": 0.1714115092
        },
        "meters": {
            "estimated_diameter_min": 76.6575573531,
            "estimated_diameter_max": 171.4115092306
        },
        "miles": {
            "estimated_diameter_min": 0.0476327831,
            "estimated_diameter_max": 0.1065101409
        },
        "feet": {
            "estimated_diameter_min": 251.5011804664,
            "estimated_diameter_max": 562.3737359442
        }
    },
    "is_potentially_hazardous_asteroid": false,
    "close_approach_data": [
        {
            "close_approach_date": "2012-06-07",
            "close_approach_date_full": "2012-Jun-07 09:09",
            "epoch_date_close_approach": 1339060140000,
            "relative_velocity": {
                "kilometers_per_second": "15.6099596726",
                "kilometers_per_hour": "56195.8548214896",
                "miles_per_hour": "34917.9187917195"
            },
            "miss_distance": {
                "astronomical": "0.125396433",
                "lunar": "48.779212437",
                "kilometers": "18759039.28239771",
                "miles": "11656326.499039998"
            },
            "orbiting_body": "Earth"
        }
    ],
    "orbital_data": {
        "orbit_id": "10",
        "orbit_determination_date": "2017-04-06 08:49:34",
        "first_observation_date": "2012-06-15",
        "last_observation_date": "2012-07-16",
        "data_arc_in_days": 31,
        "observations_used": 55,
        "orbit_uncertainty": "7",
        "minimum_orbit_intersection": ".127237",
        "jupiter_tisserand_invariant": "3.072",
        "epoch_osculation": "2459000.5",
        "eccentricity": ".5638324190667656",
        "semi_major_axis": "2.565824938380953",
        "inclination": "25.87772943131471",
        "ascending_node_longitude": "260.3760681688011",
        "orbital_period": "1501.201396506847",
        "perihelion_distance": "1.119129656471786",
        "perihelion_argument": "338.6217930433028",
        "aphelion_distance": "4.012520220290122",
        "perihelion_time": "2459070.823214539718",
        "mean_anomaly": "343.1359354626186",
        "mean_motion": ".2398079303934074",
        "equinox": "J2000",
        "orbit_class": {
            "orbit_class_type": "AMO",
            "orbit_class_description": "Near-Earth asteroid orbits similar to that of 1221 Amor",
            "orbit_class_range": "1.017 AU < q (perihelion) < 1.3 AU"
        }
    },
    "is_sentry_object": false
}